{"type":"FeatureCollection","features":[{"type":"Feature","geometry":{"coordinates":[[[4.869957419077104,45.763725820160495],[4.867992894124979,45.766371420000716],[4.867189953492547,45.76675671956466],[4.866507433335574,45.76697338378619],[4.865805668254338,45.76745878272006],[4.865423283122099,45.76787404281195],[4.865395645949207,45.76827532923531],[4.863903413535678,45.76871703776043],[4.863090305492181,45.76929883639874],[4.862157076427953,45.77040323921746],[4.861114714822156,45.771860722509494],[4.858430834283927,45.772428296080165],[4.858616924370613,45.774707702177395],[4.859118183571694,45.779658011134735],[4.859901586791563,45.7869437916579],[4.856611759570484,45.78697274565743],[4.854698768201308,45.786787125499565],[4.853650982295362,45.78652511313742],[4.850960373640697,45.78549379854461],[4.849062499235979,45.78452689743829],[4.847554214100327,45.783620241767835],[4.845802631292548,45.782288796809326],[4.844279404391234,45.78054556082306],[4.843064423001115,45.77877835577282],[4.841546253228406,45.77640899327725],[4.839874055053632,45.773314331990655],[4.8396242120588,45.77284642186681],[4.839573895728547,45.7724563239792],[4.839628631387075,45.768611101101385],[4.83975782518255,45.76626798823781],[4.83994671694398,45.76355370021137],[4.844989856270787,45.76358211448511],[4.851466049518368,45.76363092636201],[4.857518389649534,45.7636656303831],[4.869957419077104,45.763725820160495]]],"type":"Polygon"},"properties":{"geo_point_2d":{"lon":4.85198583548787,"lat":45.77303902751396},"year":"2024","reg_code":["84"],"reg_name":["Auvergne-Rh\u00f4ne-Alpes"],"dep_code":["69"],"dep_name":["Rh\u00f4ne"],"arrdep_code":["691"],"arrdep_name":["Lyon"],"ze2020_code":null,"ze2020_name":null,"bv2022_code":["69123"],"bv2022_name":["Lyon"],"epci_code":["200046977"],"epci_name":["M\u00e9tropole de Lyon"],"ept_code":null,"ept_name":null,"com_code":["69123"],"com_name":["Lyon"],"com_arm_code":["69386"],"com_arm_current_code":["69386"],"com_arm_name":["Lyon 6e Arrondissement"],"com_arm_name_upper":"LYON 6E ARRONDISSEMENT","com_arm_name_lower":"lyon 6e arrondissement","com_arm_area_code":"FXX","com_arm_type":"arrondissement municipal","ze2010_name":null,"ze2010_code":null,"com_arm_cataeu2010_code":null,"com_arm_cataeu2010_name":null,"com_arm_uu2010_code":null,"com_arm_uu2010_status":null,"com_arm_au2010_code":null,"com_arm_cateaav2020_code":null,"com_arm_cateaav2020_name":null,"com_arm_uu2020_code":null,"com_arm_uu2020_status":null,"com_arm_aav2020_code":null,"com_arm_cv_code":"6999","com_arm_in_ctu":"Non","com_arm_siren_code":null,"com_arm_is_mountain_area":"Non"}},{"type":"Feature","geometry":{"coordinates":[[[4.819006005165525,45.789789275337974],[4.816296817166229,45.78751173479966],[4.815402764765143,45.78647677337983],[4.810319029195025,45.779772372105974],[4.809448714066787,45.77827581520917],[4.809155968787715,45.777669817584],[4.808926566413906,45.77652146766383],[4.809044982120556,45.77573503701073],[4.809703074846714,45.77480213982819],[4.810750052162611,45.77359998558597],[4.812306117695895,45.772458999942415],[4.812871856832102,45.771303285612824],[4.813853096999494,45.77143523243153],[4.814360807439519,45.77121809959265],[4.814958859157275,45.7717137875071],[4.815897867860798,45.771931064512174],[4.816269118777838,45.77147832741761],[4.816951211600872,45.77167180906055],[4.82135403077252,45.77302666648698],[4.823549617700016,45.77368115763455],[4.830916861172996,45.77428872631162],[4.834687980983982,45.77455082581531],[4.834885961706187,45.77547355896273],[4.835161842324561,45.77552491724633],[4.835546992033249,45.77499082247122],[4.835936382287803,45.77477821882241],[4.836960339207055,45.77468138604175],[4.837303731339294,45.77420831392647],[4.837675311811354,45.7741184938228],[4.839874055053632,45.773314331990655],[4.841546253228406,45.77640899327725],[4.843064423001115,45.77877835577282],[4.841316078612159,45.77946713976646],[4.840742907985612,45.78011421186794],[4.839212335587491,45.78154611755344],[4.838239899451019,45.78234380091103],[4.837753307761809,45.782615641952304],[4.837109073597611,45.78267657372397],[4.834292594131142,45.78183247024358],[4.833185295223544,45.78174958349246],[4.831160338418326,45.782100422277516],[4.831237375496952,45.7825990781633],[4.831660877321035,45.7825201457698],[4.831718353534703,45.78297228088601],[4.830141243788492,45.78320323824117],[4.829268972237241,45.78259858005032],[4.829276083395949,45.78292993386028],[4.827774778524443,45.7832343897217],[4.824019764954351,45.78421749907957],[4.823617034763271,45.784302371837846],[4.823029755743776,45.78620699660937],[4.822135009087729,45.78620793699377],[4.821718096325263,45.786565952717524],[4.821498085374782,45.78692168943291],[4.822459523419293,45.78738085080071],[4.822406936958185,45.787777120355955],[4.821862827913347,45.78802640079387],[4.819006005165525,45.789789275337974]]],"type":"Polygon"},"properties":{"geo_point_2d":{"lon":4.823805636657886,"lat":45.77900170042951},"year":"2024","reg_code":["84"],"reg_name":["Auvergne-Rh\u00f4ne-Alpes"],"dep_code":["69"],"dep_name":["Rh\u00f4ne"],"arrdep_code":["691"],"arrdep_name":["Lyon"],"ze2020_code":null,"ze2020_name":null,"bv2022_code":["69123"],"bv2022_name":["Lyon"],"epci_code":["200046977"],"epci_name":["M\u00e9tropole de Lyon"],"ept_code":null,"ept_name":null,"com_code":["69123"],"com_name":["Lyon"],"com_arm_code":["69384"],"com_arm_current_code":["69384"],"com_arm_name":["Lyon 4e Arrondissement"],"com_arm_name_upper":"LYON 4E ARRONDISSEMENT","com_arm_name_lower":"lyon 4e arrondissement","com_arm_area_code":"FXX","com_arm_type":"arrondissement municipal","ze2010_name":null,"ze2010_code":null,"com_arm_cataeu2010_code":null,"com_arm_cataeu2010_name":null,"com_arm_uu2010_code":null,"com_arm_uu2010_status":null,"com_arm_au2010_code":null,"com_arm_cateaav2020_code":null,"com_arm_cateaav2020_name":null,"com_arm_uu2020_code":null,"com_arm_uu2020_status":null,"com_arm_aav2020_code":null,"com_arm_cv_code":"6999","com_arm_in_ctu":"Non","com_arm_siren_code":null,"com_arm_is_mountain_area":"Non"}},{"type":"Feature","geometry":{"coordinates":[[[4.898395706878701,45.75291649128593],[4.896729705047061,45.75341201186044],[4.893913447561347,45.75391061651492],[4.890269945625453,45.754150993087165],[4.886012240106935,45.754266412801286],[4.884376264624634,45.75425052401382],[4.878306120188587,45.75495077916884],[4.87562003778778,45.754893699143985],[4.87600443921369,45.755262915167016],[4.876198785720551,45.75568122971883],[4.876350830962692,45.75690010723736],[4.876574043679668,45.75816824224994],[4.873784667448353,45.758750559900605],[4.874480003869833,45.760546795595566],[4.871814647607126,45.7612233804609],[4.869957419077104,45.763725820160495],[4.857518389649534,45.7636656303831],[4.851466049518368,45.76363092636201],[4.844989856270787,45.76358211448511],[4.83994671694398,45.76355370021137],[4.839890117431838,45.762626868275866],[4.838560442462522,45.75673884270265],[4.8408372373268,45.75601984929911],[4.843019551864939,45.75528613979582],[4.850308943654636,45.75275011032551],[4.858916579750917,45.74979645296403],[4.859909377686911,45.74955309712998],[4.861602234109805,45.74885591537701],[4.865221185697867,45.747628756329846],[4.867115813778127,45.74696688393128],[4.876982145777554,45.74358743714849],[4.878397829385774,45.74311168952087],[4.879223093790621,45.742714221960455],[4.880011796091202,45.742490300442256],[4.883083668532617,45.74199407206645],[4.885193395305394,45.741313884906084],[4.891880371305781,45.73909953962392],[4.89206209557083,45.739598205709825],[4.892711179496615,45.74003318072213],[4.894354090343828,45.743078937261814],[4.894863283260801,45.74378467373648],[4.896528525989456,45.747024589357196],[4.897178569349181,45.750107723702186],[4.897430546162707,45.75058898749015],[4.897708152343615,45.75162918415493],[4.898395706878701,45.75291649128593]]],"type":"Polygon"},"properties":{"geo_point_2d":{"lon":4.869427136421258,"lat":45.75332263040548},"year":"2024","reg_code":["84"],"reg_name":["Auvergne-Rh\u00f4ne-Alpes"],"dep_code":["69"],"dep_name":["Rh\u00f4ne"],"arrdep_code":["691"],"arrdep_name":["Lyon"],"ze2020_code":null,"ze2020_name":null,"bv2022_code":["69123"],"bv2022_name":["Lyon"],"epci_code":["200046977"],"epci_name":["M\u00e9tropole de Lyon"],"ept_code":null,"ept_name":null,"com_code":["69123"],"com_name":["Lyon"],"com_arm_code":["69383"],"com_arm_current_code":["69383"],"com_arm_name":["Lyon 3e Arrondissement"],"com_arm_name_upper":"LYON 3E ARRONDISSEMENT","com_arm_name_lower":"lyon 3e arrondissement","com_arm_area_code":"FXX","com_arm_type":"arrondissement municipal","ze2010_name":null,"ze2010_code":null,"com_arm_cataeu2010_code":null,"com_arm_cataeu2010_name":null,"com_arm_uu2010_code":null,"com_arm_uu2010_status":null,"com_arm_au2010_code":null,"com_arm_cateaav2020_code":null,"com_arm_cateaav2020_name":null,"com_arm_uu2020_code":null,"com_arm_uu2020_status":null,"com_arm_aav2020_code":null,"com_arm_cv_code":"6999","com_arm_in_ctu":"Non","com_arm_siren_code":null,"com_arm_is_mountain_area":"Non"}},{"type":"Feature","geometry":{"coordinates":[[[4.777578612948037,45.747184368075935],[4.777910425945668,45.74718093850089],[4.778780067858079,45.74753921990642],[4.780880361603115,45.746002773715766],[4.782354411392539,45.74527602411273],[4.783276026127461,45.74453367326438],[4.783566418969739,45.74420392138233],[4.788341946113196,45.746476457507015],[4.791830069527322,45.74795681210877],[4.794252937824029,45.74911534502486],[4.797030875073819,45.75007181283678],[4.798560566561415,45.750267202625885],[4.799414651716942,45.75045804171624],[4.80118595930994,45.75123681168635],[4.802387318895189,45.75169950418332],[4.8074239554545,45.75003001775834],[4.809029019277983,45.74953950755965],[4.810577651191056,45.749251642487735],[4.810355852038009,45.74892193524743],[4.809508420421921,45.748109572170335],[4.811108962414417,45.74760108929782],[4.811595050269586,45.74833998229455],[4.81211435949099,45.74856132336475],[4.813455186217833,45.74809751286994],[4.814335606645062,45.74889400413086],[4.814642784840326,45.74966818935624],[4.816963639280422,45.74958488230442],[4.818214427598738,45.748965739182395],[4.821084081095968,45.750662341821844],[4.822827534178657,45.751796113612514],[4.824522859980288,45.75388631138864],[4.825802356371084,45.756589409190084],[4.826302074452182,45.75707041438955],[4.828437616768912,45.75954434654832],[4.830170296100493,45.76169961541769],[4.830361090476051,45.763263790747615],[4.83048499174066,45.76471195659562],[4.82934557164138,45.766485964690474],[4.828326324956968,45.76726540779144],[4.827885172027495,45.767507647612305],[4.826577734551159,45.767824264858476],[4.823492447813926,45.767854363856124],[4.819694446871965,45.76715097541614],[4.819969724405378,45.7655837713275],[4.81981347702258,45.76541155091064],[4.819888839525903,45.764964474724884],[4.81781911016009,45.76526806616638],[4.816767009133187,45.765756997084814],[4.815611300976,45.7659134158609],[4.815182358478173,45.76586267253377],[4.815021438350856,45.765665300549436],[4.814985967977378,45.76470299443444],[4.814832163738776,45.764212771610694],[4.814412432136474,45.76405018730499],[4.813311891526018,45.76396520168529],[4.813148103653935,45.76320942314263],[4.813438623182953,45.762885895786276],[4.812693652684074,45.7627726693142],[4.812915181550939,45.76391573331142],[4.812665118141792,45.76425662360882],[4.811810186157187,45.764793680624386],[4.81063424642404,45.76472519208036],[4.80935502702088,45.76433228549112],[4.809881574125852,45.762766484233914],[4.810148393628864,45.762308237111846],[4.81017457306837,45.76165389042489],[4.810509626658357,45.76045054815922],[4.810361784025205,45.76018000144251],[4.811640437145499,45.75914525417548],[4.812384377794943,45.75867933667187],[4.810032124400449,45.75887653855219],[4.806209805510978,45.76008173381295],[4.805101113438254,45.76029584044347],[4.804578495994123,45.76064557740929],[4.804076743462585,45.7611616120071],[4.802207734018864,45.762606526503006],[4.801483148513223,45.76303873890128],[4.799964449220239,45.76354757253227],[4.799498220265021,45.76361535974879],[4.7980659559837,45.76365711497502],[4.796272540294712,45.76355508392418],[4.795260178310893,45.763687393891686],[4.791466245845428,45.764080979212586],[4.78673294612098,45.76416055677977],[4.786340630187516,45.76237523991304],[4.786136609886962,45.762035296807674],[4.785781036531563,45.76066913188572],[4.785159413187668,45.7588343000818],[4.783934580176288,45.75832225551719],[4.782620717664921,45.757203620592264],[4.782137729098978,45.75667082268943],[4.782140905332239,45.754455006961464],[4.780069711198049,45.754586795515856],[4.777925070905265,45.75427565047694],[4.776608038058671,45.75397214732496],[4.773963569319409,45.75315989609263],[4.773238649813253,45.753063210684836],[4.771864534481336,45.75109783087263],[4.77191244560496,45.75078633147851],[4.772849058092399,45.75070495845673],[4.773025216502682,45.7501401427972],[4.774246022408895,45.74937334863538],[4.775534112151504,45.74813891070004],[4.777578612948037,45.747184368075935]]],"type":"Polygon"},"properties":{"geo_point_2d":{"lon":4.802952801260935,"lat":45.7562578978571},"year":"2024","reg_code":["84"],"reg_name":["Auvergne-Rh\u00f4ne-Alpes"],"dep_code":["69"],"dep_name":["Rh\u00f4ne"],"arrdep_code":["691"],"arrdep_name":["Lyon"],"ze2020_code":null,"ze2020_name":null,"bv2022_code":["69123"],"bv2022_name":["Lyon"],"epci_code":["200046977"],"epci_name":["M\u00e9tropole de Lyon"],"ept_code":null,"ept_name":null,"com_code":["69123"],"com_name":["Lyon"],"com_arm_code":["69385"],"com_arm_current_code":["69385"],"com_arm_name":["Lyon 5e Arrondissement"],"com_arm_name_upper":"LYON 5E ARRONDISSEMENT","com_arm_name_lower":"lyon 5e arrondissement","com_arm_area_code":"FXX","com_arm_type":"arrondissement municipal","ze2010_name":null,"ze2010_code":null,"com_arm_cataeu2010_code":null,"com_arm_cataeu2010_name":null,"com_arm_uu2010_code":null,"com_arm_uu2010_status":null,"com_arm_au2010_code":null,"com_arm_cateaav2020_code":null,"com_arm_cateaav2020_name":null,"com_arm_uu2020_code":null,"com_arm_uu2020_status":null,"com_arm_aav2020_code":null,"com_arm_cv_code":"6999","com_arm_in_ctu":"Non","com_arm_siren_code":null,"com_arm_is_mountain_area":"Non"}},{"type":"Feature","geometry":{"coordinates":[[[4.849233525235206,45.718840692790636],[4.848622047863961,45.721089946720475],[4.848280096774831,45.721824247847984],[4.847610536477503,45.72268371596938],[4.847444404489129,45.72440864078426],[4.847216655083548,45.72525185663197],[4.847371127144411,45.72710393483227],[4.84762051609003,45.72821675684851],[4.847716336024558,45.73081470323093],[4.848455489338264,45.73695820162908],[4.848644108929006,45.73771352720773],[4.849373929140681,45.73845817514038],[4.850325665933633,45.73891454483501],[4.853100554031461,45.73945805229159],[4.855059424437086,45.74002482930963],[4.85622940517375,45.74061897511784],[4.857232630995993,45.741456352810786],[4.857829778474423,45.74230581815566],[4.858642197737066,45.744965817193254],[4.859909377686911,45.74955309712998],[4.858916579750917,45.74979645296403],[4.850308943654636,45.75275011032551],[4.843019551864939,45.75528613979582],[4.8408372373268,45.75601984929911],[4.838560442462522,45.75673884270265],[4.83548691728537,45.75249421597765],[4.821401525267381,45.73538628486018],[4.818719011539791,45.72656914972613],[4.820397505684858,45.71997306152086],[4.820791482181851,45.719167753830774],[4.822542729279048,45.7156131060309],[4.823378890657754,45.71457185228635],[4.824190800353939,45.713731846438904],[4.825103780589952,45.71307214435847],[4.826837155226024,45.71210460075308],[4.829531282621726,45.71103226393427],[4.83296501038004,45.7099343224842],[4.834256258912752,45.709365668916476],[4.837636665107878,45.707481212358196],[4.840504529009865,45.70777938671036],[4.838138172183236,45.7135970950291],[4.837557309240859,45.71852095082319],[4.849233525235206,45.718840692790636]]],"type":"Polygon"},"properties":{"geo_point_2d":{"lon":4.837297787024133,"lat":45.733365441458076},"year":"2024","reg_code":["84"],"reg_name":["Auvergne-Rh\u00f4ne-Alpes"],"dep_code":["69"],"dep_name":["Rh\u00f4ne"],"arrdep_code":["691"],"arrdep_name":["Lyon"],"ze2020_code":null,"ze2020_name":null,"bv2022_code":["69123"],"bv2022_name":["Lyon"],"epci_code":["200046977"],"epci_name":["M\u00e9tropole de Lyon"],"ept_code":null,"ept_name":null,"com_code":["69123"],"com_name":["Lyon"],"com_arm_code":["69387"],"com_arm_current_code":["69387"],"com_arm_name":["Lyon 7e Arrondissement"],"com_arm_name_upper":"LYON 7E ARRONDISSEMENT","com_arm_name_lower":"lyon 7e arrondissement","com_arm_area_code":"FXX","com_arm_type":"arrondissement municipal","ze2010_name":null,"ze2010_code":null,"com_arm_cataeu2010_code":null,"com_arm_cataeu2010_name":null,"com_arm_uu2010_code":null,"com_arm_uu2010_status":null,"com_arm_au2010_code":null,"com_arm_cateaav2020_code":null,"com_arm_cateaav2020_name":null,"com_arm_uu2020_code":null,"com_arm_uu2020_status":null,"com_arm_aav2020_code":null,"com_arm_cv_code":"6999","com_arm_in_ctu":"Non","com_arm_siren_code":null,"com_arm_is_mountain_area":"Non"}},{"type":"Feature","geometry":{"coordinates":[[[4.83048499174066,45.76471195659562],[4.830361090476051,45.763263790747615],[4.830170296100493,45.76169961541769],[4.828437616768912,45.75954434654832],[4.826302074452182,45.75707041438955],[4.825802356371084,45.756589409190084],[4.824522859980288,45.75388631138864],[4.822827534178657,45.751796113612514],[4.821084081095968,45.750662341821844],[4.818214427598738,45.748965739182395],[4.817157462097338,45.74824057752083],[4.816627160840747,45.747763630212745],[4.815147455139084,45.74619137189212],[4.814153243128549,45.74474909675636],[4.813649857403051,45.74352230001689],[4.813359350808748,45.74231369549904],[4.813034418602038,45.73993740381807],[4.813040784768355,45.738719521395886],[4.813334203391373,45.73691965799701],[4.814282001535191,45.73295473095358],[4.81493575836747,45.73179037929409],[4.815212390732595,45.73151931074968],[4.816236683418746,45.73110379178039],[4.816744557560337,45.7307857587052],[4.816959914318911,45.73045082092007],[4.817851596924845,45.72647235237549],[4.818719011539791,45.72656914972613],[4.821401525267381,45.73538628486018],[4.83548691728537,45.75249421597765],[4.838560442462522,45.75673884270265],[4.839890117431838,45.762626868275866],[4.83994671694398,45.76355370021137],[4.83975782518255,45.76626798823781],[4.836821301807406,45.76612488773105],[4.836885872759521,45.76531858142308],[4.834805225103181,45.76517499980625],[4.834312167671075,45.76509294554045],[4.834303438728043,45.764907536739294],[4.833124505938263,45.76486635273915],[4.832985868857133,45.76468305497572],[4.832344020341579,45.76477094597473],[4.83048499174066,45.76471195659562]]],"type":"Polygon"},"properties":{"geo_point_2d":{"lon":4.8256822414831415,"lat":45.74833214196701},"year":"2024","reg_code":["84"],"reg_name":["Auvergne-Rh\u00f4ne-Alpes"],"dep_code":["69"],"dep_name":["Rh\u00f4ne"],"arrdep_code":["691"],"arrdep_name":["Lyon"],"ze2020_code":null,"ze2020_name":null,"bv2022_code":["69123"],"bv2022_name":["Lyon"],"epci_code":["200046977"],"epci_name":["M\u00e9tropole de Lyon"],"ept_code":null,"ept_name":null,"com_code":["69123"],"com_name":["Lyon"],"com_arm_code":["69382"],"com_arm_current_code":["69382"],"com_arm_name":["Lyon 2e Arrondissement"],"com_arm_name_upper":"LYON 2E ARRONDISSEMENT","com_arm_name_lower":"lyon 2e arrondissement","com_arm_area_code":"FXX","com_arm_type":"arrondissement municipal","ze2010_name":null,"ze2010_code":null,"com_arm_cataeu2010_code":null,"com_arm_cataeu2010_name":null,"com_arm_uu2010_code":null,"com_arm_uu2010_status":null,"com_arm_au2010_code":null,"com_arm_cateaav2020_code":null,"com_arm_cateaav2020_name":null,"com_arm_uu2020_code":null,"com_arm_uu2020_status":null,"com_arm_aav2020_code":null,"com_arm_cv_code":"6999","com_arm_in_ctu":"Non","com_arm_siren_code":null,"com_arm_is_mountain_area":"Non"}},{"type":"Feature","geometry":{"coordinates":[[[4.788345559067462,45.789771302399245],[4.786131740134242,45.788877720017084],[4.784943981877935,45.7880597441254],[4.784097798819974,45.78781101571114],[4.784298700616921,45.787254797448746],[4.785107533375509,45.78730415525486],[4.785650963273214,45.786989312736786],[4.785757899032363,45.786513841830484],[4.785513520847548,45.78600339770515],[4.785677583127187,45.785821558392755],[4.788697961921951,45.78622138088511],[4.789967832287252,45.786235472517006],[4.791784773387984,45.78656422370079],[4.792102756606175,45.78652404610971],[4.791816751976903,45.785605348182806],[4.792028227100062,45.785417342095876],[4.791996745196925,45.78436760069652],[4.79183325919484,45.78333616858717],[4.791156403196197,45.78263084130929],[4.791059926761605,45.78219642363852],[4.791193024980337,45.781417889187864],[4.791760533116201,45.78073694077208],[4.791730823608308,45.780098801133995],[4.792244983442556,45.779202524013996],[4.793152934636666,45.7785810117469],[4.793033669960555,45.778198299002995],[4.793672819642347,45.77750539298839],[4.794710204530918,45.777303347638934],[4.795153140429354,45.77580200323086],[4.792443898232783,45.77347077659608],[4.792600467684384,45.77349621130354],[4.792548362959671,45.772644056210765],[4.791201945888361,45.77145036894903],[4.791073943243398,45.77099573580391],[4.790848867739945,45.76881686288555],[4.790566747123378,45.767895400537355],[4.789396606176093,45.76693398429968],[4.789021397369273,45.766435532274734],[4.786968924200393,45.76564750927657],[4.787129300453004,45.765433299492],[4.78673294612098,45.76416055677977],[4.791466245845428,45.764080979212586],[4.795260178310893,45.763687393891686],[4.796272540294712,45.76355508392418],[4.7980659559837,45.76365711497502],[4.799498220265021,45.76361535974879],[4.799964449220239,45.76354757253227],[4.801483148513223,45.76303873890128],[4.802207734018864,45.762606526503006],[4.804076743462585,45.7611616120071],[4.804578495994123,45.76064557740929],[4.805101113438254,45.76029584044347],[4.806209805510978,45.76008173381295],[4.810032124400449,45.75887653855219],[4.812384377794943,45.75867933667187],[4.811640437145499,45.75914525417548],[4.810361784025205,45.76018000144251],[4.810509626658357,45.76045054815922],[4.81017457306837,45.76165389042489],[4.810148393628864,45.762308237111846],[4.809881574125852,45.762766484233914],[4.80935502702088,45.76433228549112],[4.81063424642404,45.76472519208036],[4.811810186157187,45.764793680624386],[4.812665118141792,45.76425662360882],[4.812915181550939,45.76391573331142],[4.812693652684074,45.7627726693142],[4.813438623182953,45.762885895786276],[4.813148103653935,45.76320942314263],[4.813311891526018,45.76396520168529],[4.814412432136474,45.76405018730499],[4.814832163738776,45.764212771610694],[4.814985967977378,45.76470299443444],[4.815021438350856,45.765665300549436],[4.815182358478173,45.76586267253377],[4.815611300976,45.7659134158609],[4.816767009133187,45.765756997084814],[4.81781911016009,45.76526806616638],[4.819888839525903,45.764964474724884],[4.81981347702258,45.76541155091064],[4.819969724405378,45.7655837713275],[4.819694446871965,45.76715097541614],[4.818438495259916,45.76696045821394],[4.817515557552131,45.767033879633246],[4.814333899623537,45.76804707353345],[4.813729128639694,45.76859993680459],[4.812871856832102,45.771303285612824],[4.812306117695895,45.772458999942415],[4.810750052162611,45.77359998558597],[4.809703074846714,45.77480213982819],[4.809044982120556,45.77573503701073],[4.808926566413906,45.77652146766383],[4.809155968787715,45.777669817584],[4.809448714066787,45.77827581520917],[4.810319029195025,45.779772372105974],[4.815402764765143,45.78647677337983],[4.816296817166229,45.78751173479966],[4.819006005165525,45.789789275337974],[4.82088339998097,45.79127852919465],[4.822351474241857,45.79230057986376],[4.826872467893207,45.79507199517074],[4.829046010779162,45.796198735508725],[4.831277093819215,45.796456195943605],[4.832960650676531,45.796744123487905],[4.834719074817647,45.797308235055915],[4.835418223509731,45.79742206972752],[4.837113486961408,45.798331252209756],[4.837873622826392,45.79930968481118],[4.838835370539668,45.80011549036697],[4.840574521282419,45.80195076453848],[4.841467705899216,45.803555718555195],[4.838819281520562,45.803924958746116],[4.838337033268831,45.804448934404824],[4.837988738276725,45.805089623810616],[4.837851323050359,45.80645557304064],[4.837582351747945,45.80750660509735],[4.837102698772337,45.80822599195048],[4.837065371609219,45.80842025725932],[4.836044769639983,45.80681644063785],[4.835687133303284,45.805666615368196],[4.83440361519864,45.80420937674081],[4.833764244296768,45.80500610537229],[4.832120627394247,45.8056579024216],[4.832154451205358,45.806987735949505],[4.827142972337364,45.80457123264681],[4.827158697910702,45.80469617978746],[4.8256208803865,45.80461567559972],[4.825379327309829,45.804515997875626],[4.824158119346985,45.80450691573429],[4.824141887937454,45.8046783168695],[4.822891368331632,45.80467870194014],[4.82353441630653,45.80352078502724],[4.823931211727368,45.80301807164739],[4.823782519702718,45.80198643549085],[4.820281218783461,45.80215104040852],[4.819570398843092,45.7994170778767],[4.818702680964814,45.79930676219411],[4.818427205825456,45.799349031235906],[4.818372289286242,45.79885451501018],[4.81811809772906,45.798526240854336],[4.817567361335597,45.79861707717144],[4.816613363416331,45.79834960683845],[4.8166353543693,45.79811776566594],[4.816354327908397,45.79728641249461],[4.815943504386699,45.79669764167928],[4.8149959965054,45.79592114261286],[4.814759281248413,45.79490892794595],[4.814232901982392,45.794407578688585],[4.811096814692131,45.79301228073427],[4.809488884277048,45.79239225170806],[4.808739812921868,45.79173321838558],[4.808450431742531,45.791035289559225],[4.807749354722302,45.78904871189307],[4.807327908442372,45.789271636425184],[4.807053747154449,45.788998603335635],[4.806347004287149,45.789513423623234],[4.805200126600168,45.78995601677254],[4.804712959782684,45.79025654415779],[4.803832991465003,45.79102722183406],[4.803113938637005,45.79136387429052],[4.802697134949448,45.791966812589195],[4.802446570264562,45.791982524091644],[4.801981793244583,45.79178638242892],[4.801306520354775,45.79133419027486],[4.800769029150722,45.7915139055911],[4.799931033093924,45.791599331794416],[4.796635218381651,45.791491519722726],[4.796739970157286,45.79118901054833],[4.797320316097725,45.79042676490621],[4.797470379397029,45.789855117813104],[4.794165871087152,45.789396992866095],[4.793425377321063,45.78939164944254],[4.792613299993191,45.78995759524779],[4.790525857786593,45.79089956193331],[4.789711957224815,45.78990096226117],[4.789328119301045,45.79025382645834],[4.788345559067462,45.789771302399245]]],"type":"Polygon"},"properties":{"geo_point_2d":{"lon":4.808785409462149,"lat":45.782645275342006},"year":"2024","reg_code":["84"],"reg_name":["Auvergne-Rh\u00f4ne-Alpes"],"dep_code":["69"],"dep_name":["Rh\u00f4ne"],"arrdep_code":["691"],"arrdep_name":["Lyon"],"ze2020_code":null,"ze2020_name":null,"bv2022_code":["69123"],"bv2022_name":["Lyon"],"epci_code":["200046977"],"epci_name":["M\u00e9tropole de Lyon"],"ept_code":null,"ept_name":null,"com_code":["69123"],"com_name":["Lyon"],"com_arm_code":["69389"],"com_arm_current_code":["69389"],"com_arm_name":["Lyon 9e Arrondissement"],"com_arm_name_upper":"LYON 9E ARRONDISSEMENT","com_arm_name_lower":"lyon 9e arrondissement","com_arm_area_code":"FXX","com_arm_type":"arrondissement municipal","ze2010_name":null,"ze2010_code":null,"com_arm_cataeu2010_code":null,"com_arm_cataeu2010_name":null,"com_arm_uu2010_code":null,"com_arm_uu2010_status":null,"com_arm_au2010_code":null,"com_arm_cateaav2020_code":null,"com_arm_cateaav2020_name":null,"com_arm_uu2020_code":null,"com_arm_uu2020_status":null,"com_arm_aav2020_code":null,"com_arm_cv_code":"6999","com_arm_in_ctu":"Non","com_arm_siren_code":null,"com_arm_is_mountain_area":"Non"}},{"type":"Feature","geometry":{"coordinates":[[[4.886997948499995,45.72611786583571],[4.886757010668681,45.72878089510915],[4.886739455852357,45.729359466598105],[4.886873372576667,45.72974094210756],[4.887759802832033,45.73061513598011],[4.888659188579998,45.733072615585854],[4.889732830163903,45.73509391056278],[4.891850584463151,45.73852986724852],[4.891880371305781,45.73909953962392],[4.885193395305394,45.741313884906084],[4.883083668532617,45.74199407206645],[4.880011796091202,45.742490300442256],[4.879223093790621,45.742714221960455],[4.878397829385774,45.74311168952087],[4.876982145777554,45.74358743714849],[4.867115813778127,45.74696688393128],[4.865221185697867,45.747628756329846],[4.861602234109805,45.74885591537701],[4.859909377686911,45.74955309712998],[4.858642197737066,45.744965817193254],[4.857829778474423,45.74230581815566],[4.857232630995993,45.741456352810786],[4.85622940517375,45.74061897511784],[4.855059424437086,45.74002482930963],[4.853100554031461,45.73945805229159],[4.850325665933633,45.73891454483501],[4.849373929140681,45.73845817514038],[4.848644108929006,45.73771352720773],[4.848455489338264,45.73695820162908],[4.847716336024558,45.73081470323093],[4.84762051609003,45.72821675684851],[4.847371127144411,45.72710393483227],[4.847216655083548,45.72525185663197],[4.847444404489129,45.72440864078426],[4.847610536477503,45.72268371596938],[4.848280096774831,45.721824247847984],[4.848622047863961,45.721089946720475],[4.849233525235206,45.718840692790636],[4.84971490770655,45.71885441108518],[4.854484958576594,45.718989499247364],[4.854015618603728,45.72466644545453],[4.85371358796795,45.72977407667851],[4.854896050095846,45.72986541650567],[4.859814903252824,45.730724741130935],[4.860698641574676,45.72923835355266],[4.862207477441627,45.72710571299905],[4.862471341249908,45.72692120614287],[4.87136921221394,45.72443461792613],[4.880872731775611,45.72174264921584],[4.88115518372722,45.721918083878265],[4.882050509751279,45.72188872553876],[4.883862110150443,45.72169002221459],[4.885082854195306,45.721474150824825],[4.885488822808272,45.72134936294517],[4.886054710243712,45.72150202886756],[4.887559865206636,45.72035090254966],[4.886997948499995,45.72611786583571]]],"type":"Polygon"},"properties":{"geo_point_2d":{"lon":4.868941717159833,"lat":45.73390702739078},"year":"2024","reg_code":["84"],"reg_name":["Auvergne-Rh\u00f4ne-Alpes"],"dep_code":["69"],"dep_name":["Rh\u00f4ne"],"arrdep_code":["691"],"arrdep_name":["Lyon"],"ze2020_code":null,"ze2020_name":null,"bv2022_code":["69123"],"bv2022_name":["Lyon"],"epci_code":["200046977"],"epci_name":["M\u00e9tropole de Lyon"],"ept_code":null,"ept_name":null,"com_code":["69123"],"com_name":["Lyon"],"com_arm_code":["69388"],"com_arm_current_code":["69388"],"com_arm_name":["Lyon 8e Arrondissement"],"com_arm_name_upper":"LYON 8E ARRONDISSEMENT","com_arm_name_lower":"lyon 8e arrondissement","com_arm_area_code":"FXX","com_arm_type":"arrondissement municipal","ze2010_name":null,"ze2010_code":null,"com_arm_cataeu2010_code":null,"com_arm_cataeu2010_name":null,"com_arm_uu2010_code":null,"com_arm_uu2010_status":null,"com_arm_au2010_code":null,"com_arm_cateaav2020_code":null,"com_arm_cateaav2020_name":null,"com_arm_uu2020_code":null,"com_arm_uu2020_status":null,"com_arm_aav2020_code":null,"com_arm_cv_code":"6999","com_arm_in_ctu":"Non","com_arm_siren_code":null,"com_arm_is_mountain_area":"Non"}},{"type":"Feature","geometry":{"coordinates":[[[4.83975782518255,45.76626798823781],[4.839628631387075,45.768611101101385],[4.839573895728547,45.7724563239792],[4.8396242120588,45.77284642186681],[4.839874055053632,45.773314331990655],[4.837675311811354,45.7741184938228],[4.837303731339294,45.77420831392647],[4.836960339207055,45.77468138604175],[4.835936382287803,45.77477821882241],[4.835546992033249,45.77499082247122],[4.835161842324561,45.77552491724633],[4.834885961706187,45.77547355896273],[4.834687980983982,45.77455082581531],[4.830916861172996,45.77428872631162],[4.823549617700016,45.77368115763455],[4.82135403077252,45.77302666648698],[4.816951211600872,45.77167180906055],[4.816269118777838,45.77147832741761],[4.815897867860798,45.771931064512174],[4.814958859157275,45.7717137875071],[4.814360807439519,45.77121809959265],[4.813853096999494,45.77143523243153],[4.812871856832102,45.771303285612824],[4.813729128639694,45.76859993680459],[4.814333899623537,45.76804707353345],[4.817515557552131,45.767033879633246],[4.818438495259916,45.76696045821394],[4.819694446871965,45.76715097541614],[4.823492447813926,45.767854363856124],[4.826577734551159,45.767824264858476],[4.827885172027495,45.767507647612305],[4.828326324956968,45.76726540779144],[4.82934557164138,45.766485964690474],[4.83048499174066,45.76471195659562],[4.832344020341579,45.76477094597473],[4.832985868857133,45.76468305497572],[4.833124505938263,45.76486635273915],[4.834303438728043,45.764907536739294],[4.834312167671075,45.76509294554045],[4.834805225103181,45.76517499980625],[4.836885872759521,45.76531858142308],[4.836821301807406,45.76612488773105],[4.83975782518255,45.76626798823781]]],"type":"Polygon"},"properties":{"geo_point_2d":{"lon":4.82851535111852,"lat":45.77006431518733},"year":"2024","reg_code":["84"],"reg_name":["Auvergne-Rh\u00f4ne-Alpes"],"dep_code":["69"],"dep_name":["Rh\u00f4ne"],"arrdep_code":["691"],"arrdep_name":["Lyon"],"ze2020_code":null,"ze2020_name":null,"bv2022_code":["69123"],"bv2022_name":["Lyon"],"epci_code":["200046977"],"epci_name":["M\u00e9tropole de Lyon"],"ept_code":null,"ept_name":null,"com_code":["69123"],"com_name":["Lyon"],"com_arm_code":["69381"],"com_arm_current_code":["69381"],"com_arm_name":["Lyon 1er Arrondissement"],"com_arm_name_upper":"LYON 1ER ARRONDISSEMENT","com_arm_name_lower":"lyon 1er arrondissement","com_arm_area_code":"FXX","com_arm_type":"arrondissement municipal","ze2010_name":null,"ze2010_code":null,"com_arm_cataeu2010_code":null,"com_arm_cataeu2010_name":null,"com_arm_uu2010_code":null,"com_arm_uu2010_status":null,"com_arm_au2010_code":null,"com_arm_cateaav2020_code":null,"com_arm_cateaav2020_name":null,"com_arm_uu2020_code":null,"com_arm_uu2020_status":null,"com_arm_aav2020_code":null,"com_arm_cv_code":"6999","com_arm_in_ctu":"Non","com_arm_siren_code":null,"com_arm_is_mountain_area":"Non"}}]}